[{"OBJECT_NAME":"FORMOSAT 7-6","OBJECT_ID":"2019-036Q","EPOCH":"2026-03-09T22:15:37.988928","MEAN_MOTION":14.96031608,"ECCENTRICITY":0.00012688,"INCLINATION":23.9972,"RA_OF_ASC_NODE":278.5868,"ARG_OF_PERICENTER":36.7738,"MEAN_ANOMALY":323.285,"EPHEMERIS_TYPE":0,"CLASSIFICATION_TYPE":"U","NORAD_CAT_ID":44353,"ELEMENT_SET_NO":999,"REV_AT_EPOCH":36693,"BSTAR":0.0003091038,"MEAN_MOTION_DOT":3.857e-5,"MEAN_MOTION_DDOT":0},{"OBJECT_NAME":"STARLINK-5863","OBJECT_ID":"2023-037J","EPOCH":"2026-03-09T22:17:42.236448","MEAN_MOTION":14.98333801,"ECCENTRICITY":0.00023449,"INCLINATION":69.9995,"RA_OF_ASC_NODE":303.8279,"ARG_OF_PERICENTER":267.7645,"MEAN_ANOMALY":92.3246,"EPHEMERIS_TYPE":0,"CLASSIFICATION_TYPE":"U","NORAD_CAT_ID":55922,"ELEMENT_SET_NO":999,"REV_AT_EPOCH":16352,"BSTAR":-8.3205167e-5,"MEAN_MOTION_DOT":-1.086e-5,"MEAN_MOTION_DDOT":0}]
